{
  "type": "FeatureCollection",
  "crs": {
    "type": "name",
    "properties": {
      "name": "urn:ogc:def:crs:OGC:1.3:CRS84"
    }
  },
  "features": [
    {
      "type": "Feature",
      "properties": {
        "name": "Odisha Manganese Belt",
        "states": "Odisha",
        "districts": "Keonjhar, Sundargarh, Rayagada, Koraput",
        "min_lon": 82.5,
        "max_lon": 86.8,
        "min_lat": 18.2,
        "max_lat": 22.4
      },
      "geometry": {
        "type": "Polygon",
        "coordinates": [
          [
            [
              82.5,
              18.2
            ],
            [
              86.8,
              18.2
            ],
            [
              86.8,
              22.4
            ],
            [
              82.5,
              22.4
            ],
            [
              82.5,
              18.2
            ]
          ]
        ]
      }
    },
    {
      "type": "Feature",
      "properties": {
        "name": "Madhya Pradesh - Maharashtra Manganese Belt",
        "states": "Madhya Pradesh, Maharashtra",
        "districts": "Balaghat, Chhindwara, Nagpur, Bhandara",
        "min_lon": 78.5,
        "max_lon": 80.8,
        "min_lat": 20.8,
        "max_lat": 22.4
      },
      "geometry": {
        "type": "Polygon",
        "coordinates": [
          [
            [
              78.5,
              20.8
            ],
            [
              80.8,
              20.8
            ],
            [
              80.8,
              22.4
            ],
            [
              78.5,
              22.4
            ],
            [
              78.5,
              20.8
            ]
          ]
        ]
      }
    },
    {
      "type": "Feature",
      "properties": {
        "name": "Karnataka Manganese Belt",
        "states": "Karnataka",
        "districts": "Bellary, Shimoga, Uttara Kannada",
        "min_lon": 74.2,
        "max_lon": 77.2,
        "min_lat": 13.5,
        "max_lat": 16.2
      },
      "geometry": {
        "type": "Polygon",
        "coordinates": [
          [
            [
              74.2,
              13.5
            ],
            [
              77.2,
              13.5
            ],
            [
              77.2,
              16.2
            ],
            [
              74.2,
              16.2
            ],
            [
              74.2,
              13.5
            ]
          ]
        ]
      }
    },
    {
      "type": "Feature",
      "properties": {
        "name": "Andhra Pradesh Manganese Belt",
        "states": "Andhra Pradesh",
        "districts": "Srikakulam, Vizianagaram",
        "min_lon": 83.0,
        "max_lon": 84.8,
        "min_lat": 18.0,
        "max_lat": 19.3
      },
      "geometry": {
        "type": "Polygon",
        "coordinates": [
          [
            [
              83.0,
              18.0
            ],
            [
              84.8,
              18.0
            ],
            [
              84.8,
              19.3
            ],
            [
              83.0,
              19.3
            ],
            [
              83.0,
              18.0
            ]
          ]
        ]
      }
    }
  ]
}